0 COSMOS 2251 DEB
1 36459U 93036BBJ 13284.38707329  .00000671  00000-0  38925-3 0   552
2 36459 074.0206 292.1583 0152726 346.7001 012.0912 14.05004162230285
0 COSMOS 2251 DEB
1 36459U 93036BBJ 13289.30012379  .00001088  00000-0  62273-3 0   560
2 36459 074.0324 283.5693 0152595 336.4480 023.0903 14.05019114230974
0 COSMOS 2251 DEB
1 36459U 93036BBJ 13292.29051230  .00001437  00000-0  81464-3 0   573
2 36459 074.0201 278.3391 0155274 330.9824 028.3236 14.05032358231392
0 COSMOS 2251 DEB
1 36459U 93036BBJ 13295.63688188  .00001616  00000-0  91590-3 0   583
2 36459 074.0156 272.4840 0154091 324.3795 034.7900 14.05046351231864
